NORAD_CAT_ID,OBJECT_NAME,OBJECT_TYPE,EPOCH,MEAN_MOTION,ECCENTRICITY,INCLINATION,RA_OF_ASC_NODE,ARG_OF_PERICENTER,MEAN_ANOMALY,BSTAR,MEAN_MOTION_DOT,MEAN_MOTION_DDOT,TLE_LINE0,TLE_LINE1,TLE_LINE2,SEMIMAJOR_AXIS,PERIOD,APOGEE,PERIGEE,DECAYED
52579.0,STARLINK-3893,PAYLOAD,2022-10-02 12:47:29,15.08825486,0.0001557,53.2194,4.2593,59.7102,300.4044,-3.3568e-05,-8.22e-06,0.0,0 STARLINK-3893,1 52579U 22051AV  22275.53298357 -.00000822  00000-0 -33568-4 0  9991,2 52579  53.2194   4.2593 0001557  59.7102 300.4044 15.08825486 22049,6917.925,95.438,540.867,538.7130000000002,0.0
52579.0,STARLINK-3893,PAYLOAD,2022-10-03 03:05:57,15.08843811,0.0001491,53.2196,1.584,58.4911,301.6227,0.00010522,1.387e-05,0.0,0 STARLINK-3893,1 52579U 22051AV  22276.12913301  .00001387  00000-0  10522-3 0  9999,2 52579  53.2196   1.5840 0001491  58.4911 301.6227 15.08843811 22203,6917.869000000002,95.437,540.765,538.702,0.0
52579.0,STARLINK-3893,PAYLOAD,2022-10-03 11:02:52,15.08863647,0.0001594,53.2176,0.0962,53.5636,306.5503,0.0011773,0.0001851,0.0,0 STARLINK-3893,1 52579U 22051AV  22276.46033350  .00018510  00000-0  11773-2 0  9997,2 52579  53.2176   0.0962 0001594  53.5636 306.5503 15.08863647 22259,6917.808000000001,95.436,540.776,538.57,0.0
52579.0,STARLINK-3893,PAYLOAD,2022-10-04 12:29:02,15.08849897,0.0001456,53.2175,355.3389,47.402,312.7095,2.3624e-05,8.8e-07,0.0,0 STARLINK-3893,1 52579U 22051AV  22277.52016297  .00000088  00000-0  23624-4 0  9997,2 52579  53.2175 355.3389 0001456  47.4020 312.7095 15.08849897 22417,6917.85,95.437,540.722,538.7080000000002,0.0
52579.0,STARLINK-3893,PAYLOAD,2022-10-05 10:44:26,15.08836741,0.0001284999999999,53.2165,351.1751,55.7137,304.3977,-0.00013005,-2.357e-05,0.0,0 STARLINK-3893,1 52579U 22051AV  22278.44752549 -.00002357  00000-0 -13005-3 0  9990,2 52579  53.2165 351.1751 0001285  55.7137 304.3977 15.08836741 22481,6917.89,95.438,540.644,538.866,0.0
52579.0,STARLINK-3893,PAYLOAD,2022-10-06 12:10:37,15.08838721,0.0001708,53.2169,346.4205,50.292,309.8223,0.00015221,2.135e-05,0.0,0 STARLINK-3893,1 52579U 22051AV  22279.50737447  .00002135  00000-0  15221-3 0  9992,2 52579  53.2169 346.4205 0001708  50.2920 309.8223 15.08838721 22716,6917.884,95.438,540.931,538.568,0.0
52579.0,STARLINK-3893,PAYLOAD,2022-10-07 10:26:01,15.08840411,0.000138,53.2168,342.2545,58.275,301.8376,0.00021771,3.179e-05,0.0,0 STARLINK-3893,1 52579U 22051AV  22280.43473458  .00003179  00000-0  21771-3 0  9991,2 52579  53.2168 342.2545 0001380  58.2750 301.8376 15.08840411 22788,6917.879,95.438,540.6990000000002,538.789,0.0
52579.0,STARLINK-3893,PAYLOAD,2022-10-07 12:01:24,15.08845749,0.0001496999999999,53.2168,341.9578,54.9754,305.1378,0.00034042,5.135e-05,0.0,0 STARLINK-3893,1 52579U 22051AV  22280.50097265  .00005135  00000-0  34042-3 0  9996,2 52579  53.2168 341.9578 0001497  54.9754 305.1378 15.08845749 22795,6917.863,95.437,540.763,538.692,0.0
52579.0,STARLINK-3893,PAYLOAD,2022-10-08 03:55:15,15.08835329,0.0001584,53.2166,338.985,50.9685,309.1448,5.0272e-05,5.12e-06,0.0,0 STARLINK-3893,1 52579U 22051AV  22281.16337775  .00000512  00000-0  50272-4 0  9990,2 52579  53.2166 338.9850 0001584  50.9685 309.1448 15.08835329 22962,6917.895,95.438,540.855,538.664,0.0
52579.0,STARLINK-3893,PAYLOAD,2022-10-08 10:16:48,15.08827675,0.0001551999999999,53.2156,337.7935,57.7288,302.3855,-9.8911e-05,-1.861e-05,0.0,0 STARLINK-3893,1 52579U 22051AV  22281.42834178 -.00001861  00000-0 -98911-4 0  9990,2 52579  53.2156 337.7935 0001552  57.7288 302.3855 15.08827675 23009,6917.918000000002,95.438,540.857,538.7090000000002,0.0
52579.0,STARLINK-3893,PAYLOAD,2022-10-09 03:46:03,15.08838782,0.0001665,53.2159,334.5235,54.9644,305.1504,0.00023152,3.398e-05,0.0,0 STARLINK-3893,1 52579U 22051AV  22282.15698318  .00003398  00000-0  23152-3 0  9994,2 52579  53.2159 334.5235 0001665  54.9644 305.1504 15.08838782 23115,6917.884,95.438,540.901,538.597,0.0
52579.0,STARLINK-3893,PAYLOAD,2022-10-09 10:07:36,15.08832833,0.0001654,53.2169,333.3359,48.2806,311.8327,0.00024448,3.604e-05,0.0,0 STARLINK-3893,1 52579U 22051AV  22282.42194607  .00003604  00000-0  24448-3 0  9995,2 52579  53.2169 333.3359 0001654  48.2806 311.8327 15.08832833 23156,6917.901999999999,95.438,540.9119999999998,538.623,0.0
52579.0,STARLINK-3893,PAYLOAD,2022-10-10 06:47:36,15.08852418,0.0001821,53.2163,329.4692,48.0493,312.0654,0.00059894,9.26e-05,0.0,0 STARLINK-3893,1 52579U 22051AV  22283.28306270  .00009260  00000-0  59894-3 0  9998,2 52579  53.2163 329.4692 0001821  48.0493 312.0654 15.08852418 23283,6917.842,95.437,540.967,538.448,0.0
52579.0,STARLINK-3893,PAYLOAD,2022-10-10 09:58:22,15.08843352,0.0001636,53.216,328.8742,53.7608,306.3535,0.00016593,2.354e-05,0.0,0 STARLINK-3893,1 52579U 22051AV  22283.41554359  .00002354  00000-0  16593-3 0  9992,2 52579  53.2160 328.8742 0001636  53.7608 306.3535 15.08843352 23308,6917.87,95.437,540.867,538.6030000000002,0.0
52579.0,STARLINK-3893,PAYLOAD,2022-10-11 03:27:37,15.08833092,0.0001638,53.216,325.603,43.5648,316.5473,-0.00028754,-4.86e-05,0.0,0 STARLINK-3893,1 52579U 22051AV  22284.14418233 -.00004860  00000-0 -28754-3 0  9991,2 52579  53.2160 325.6030 0001638  43.5648 316.5473 15.08833092 23412,6917.901999999999,95.438,540.9,538.633,0.0
52579.0,STARLINK-3893,PAYLOAD,2022-10-11 08:13:47,15.08826433,0.0001729,53.2159,324.7108,47.7751,312.3387,-0.00030308,-5.107e-05,0.0,0 STARLINK-3893,1 52579U 22051AV  22284.34290740 -.00005107  00000-0 -30308-3 0  9997,2 52579  53.2159 324.7108 0001729  47.7751 312.3387 15.08826433 23372,6917.922,95.438,540.9830000000002,538.591,0.0
52579.0,STARLINK-3893,PAYLOAD,2022-10-12 09:39:58,15.08848361,0.0001753,53.2155,319.9533,49.3847,310.7297,0.0016993,0.00026866,0.0,0 STARLINK-3893,1 52579U 22051AV  22285.40275792  .00026866  00000-0  16993-2 0  9991,2 52579  53.2155 319.9533 0001753  49.3847 310.7297 15.08848361 23531,6917.855,95.437,540.933,538.507,0.0
52579.0,STARLINK-3893,PAYLOAD,2022-10-12 22:23:03,15.08842317,0.0001696999999999,53.216,317.5737,52.2976,307.8169,0.00094332,0.00014758,0.0,0 STARLINK-3893,1 52579U 22051AV  22285.93268102  .00014758  00000-0  94332-3 0  9997,2 52579  53.2160 317.5737 0001697  52.2976 307.8169 15.08842317 23686,6917.873000000001,95.437,540.9119999999998,538.564,0.0
52579.0,STARLINK-3893,PAYLOAD,2022-10-13 11:06:08,15.08844286,0.0001989,53.2153,315.1946,48.4701,311.6461,0.00057055,8.805e-05,0.0,0 STARLINK-3893,1 52579U 22051AV  22286.46260062  .00008805  00000-0  57055-3 0  9990,2 52579  53.2153 315.1946 0001989  48.4701 311.6461 15.08844286 23765,6917.8669999999975,95.437,541.1080000000002,538.356,0.0
52579.0,STARLINK-3893,PAYLOAD,2022-10-13 19:03:04,15.08845255,0.0001861,53.2149,313.7082,57.1406,302.9765,0.0005658,8.729e-05,0.0,0 STARLINK-3893,1 52579U 22051AV  22286.79380016  .00008729  00000-0  56580-3 0  9995,2 52579  53.2149 313.7082 0001861  57.1406 302.9765 15.08845255 23748,6917.864000000001,95.437,541.0169999999998,538.442,0.0
52579.0,STARLINK-3893,PAYLOAD,2022-10-14 06:10:46,15.08842842,0.0001688,53.2145,311.6238,51.7096,308.4048,0.00021257,3.097e-05,0.0,0 STARLINK-3893,1 52579U 22051AV  22287.25747910  .00003097  00000-0  21257-3 0  9993,2 52579  53.2145 311.6238 0001688  51.7096 308.4048 15.08842842 23885,6917.871999999999,95.437,540.904,538.569,0.0
52579.0,STARLINK-3893,PAYLOAD,2022-10-14 10:56:55,15.08843586,0.0001710999999999,53.2158,310.7324,50.6621,309.4523,0.00014446,2.012e-05,0.0,0 STARLINK-3893,1 52579U 22051AV  22287.45619929  .00002012  00000-0  14446-3 0  9991,2 52579  53.2158 310.7324 0001711  50.6621 309.4523 15.08843586 23845,6917.869000000002,95.437,540.918,538.5509999999998,0.0
52579.0,STARLINK-3893,PAYLOAD,2022-10-14 18:53:50,15.08852585,0.0001739,53.2158,309.2455,49.0115,311.1028,0.00030324,4.543e-05,0.0,0 STARLINK-3893,1 52579U 22051AV  22287.78739438  .00004543  00000-0  30324-3 0  9999,2 52579  53.2158 309.2455 0001739  49.0115 311.1028 15.08852585 23897,6917.842,95.437,540.91,538.504,0.0
52579.0,STARLINK-3893,PAYLOAD,2022-10-15 07:36:55,15.08851253,0.0001693,53.2159,306.8673,52.6253,307.4893,0.00020811,3.027e-05,0.0,0 STARLINK-3893,1 52579U 22051AV  22288.31731291  .00003027  00000-0  20811-3 0  9994,2 52579  53.2159 306.8673 0001693  52.6253 307.4893 15.08851253 24042,6917.846,95.437,540.882,538.54,0.0
52579.0,STARLINK-3893,PAYLOAD,2022-10-16 02:41:33,15.08844705,0.0001718,53.2146,303.2989,52.1228,307.9919,0.0002435999999999,3.591e-05,0.0,0 STARLINK-3893,1 52579U 22051AV  22289.11219278  .00003591  00000-0  24360-3 0  9998,2 52579  53.2146 303.2989 0001718  52.1228 307.9919 15.08844705 24165,6917.866,95.437,540.919,538.543,0.0
52579.0,STARLINK-3893,PAYLOAD,2022-10-16 07:27:43,15.08835952,0.0001792,53.2158,302.4074,52.0098,308.1056,-8.7239e-05,-1.676e-05,0.0,0 STARLINK-3893,1 52579U 22051AV  22289.31091677 -.00001676  00000-0 -87239-4 0  9990,2 52579  53.2158 302.4074 0001792  52.0098 308.1056 15.08835952 24192,6917.893,95.438,540.997,538.518,0.0
52579.0,STARLINK-3893,PAYLOAD,2022-10-16 18:35:25,15.08827749,0.0001817,53.2155,300.3263,51.0617,309.0537,-0.00019411,-3.375e-05,0.0,0 STARLINK-3893,1 52579U 22051AV  22289.77460312 -.00003375  00000-0 -19411-3 0  9990,2 52579  53.2155 300.3263 0001817  51.0617 309.0537 15.08827749 24267,6917.918000000002,95.438,541.04,538.526,0.0
52579.0,STARLINK-3893,PAYLOAD,2022-10-17 02:32:21,15.08839036,0.0001733999999999,53.2168,298.8397,48.1727,311.9413,-1.0447e-05,-4.54e-06,0.0,0 STARLINK-3893,1 52579U 22051AV  22290.10579984 -.00000454  00000-0 -10447-4 0  9991,2 52579  53.2168 298.8397 0001734  48.1727 311.9413 15.08839036 24310,6917.8830000000025,95.438,540.948,538.549,0.0
52579.0,STARLINK-3893,PAYLOAD,2022-10-17 10:29:16,15.08843657,0.000175,53.2164,297.3522,51.1351,308.9797,4.4262e-05,4.16e-06,0.0,0 STARLINK-3893,1 52579U 22051AV  22290.43699527  .00000416  00000-0  44262-4 0  9991,2 52579  53.2164 297.3522 0001750  51.1351 308.9797 15.08843657 24297,6917.869000000002,95.437,540.945,538.524,0.0
